start=new Date('2022-03-08T00:00:00.000Z').valueOf();
sats=[{"NORAD_CAT_ID":"48104","DECAY_DATE":null,"REV_AT_EPOCH":"5215","PERIAPSIS":"546.155","MEAN_MOTION":"15.06403632","ELEMENT_SET_NO":"999","SITE":"AFETR","LAUNCH_DATE":"2021-04-07","SEMIMAJOR_AXIS":"6925.337","REF_FRAME":"TEME","OBJECT_ID":"2021-027N","MEAN_MOTION_DOT":"0.00000089","APOAPSIS":"548.250","TIME_SYSTEM":"UTC","GP_ID":"198188226","TLE_LINE1":"1 48104U 21027N   22066.88371553  .00000089  00000-0  24867-4 0  9993","COUNTRY_CODE":"US","ECCENTRICITY":"0.00015120","EPOCH":"2022-03-07T21:12:33.021792","MEAN_ELEMENT_THEORY":"SGP4","CENTER_NAME":"EARTH","INCLINATION":"53.0531","OBJECT_NAME":"STARLINK-2439","CLASSIFICATION_TYPE":"U","TLE_LINE2":"2 48104  53.0531 243.4201 0001512  81.3201 278.7959 15.06403632 52156","BSTAR":"0.00002486700000","EPHEMERIS_TYPE":"0","RCS_SIZE":"LARGE","ARG_OF_PERICENTER":"81.3201","PERIOD":"95.592","MEAN_ANOMALY":"278.7959","FILE":"3349821","MEAN_MOTION_DDOT":"0.0000000000000","OBJECT_TYPE":"PAYLOAD","RA_OF_ASC_NODE":"243.4201"},{"TLE_LINE1":"1 48105U 21027P   22066.85745386 -.00002229  00000-0 -13079-3 0  9992","COUNTRY_CODE":"US","GP_ID":"198188478","EPOCH":"2022-03-07T20:34:44.013504","ECCENTRICITY":"0.00020310","TIME_SYSTEM":"UTC","APOAPSIS":"548.634","REF_FRAME":"TEME","SEMIMAJOR_AXIS":"6925.362","LAUNCH_DATE":"2021-04-07","SITE":"AFETR","MEAN_MOTION":"15.06395476","ELEMENT_SET_NO":"999","OBJECT_ID":"2021-027P","MEAN_MOTION_DOT":"-0.00002229","DECAY_DATE":null,"NORAD_CAT_ID":"48105","PERIAPSIS":"545.821","REV_AT_EPOCH":"5291","FILE":"3349821","OBJECT_TYPE":"PAYLOAD","RA_OF_ASC_NODE":"188.5271","MEAN_MOTION_DDOT":"0.0000000000000","MEAN_ANOMALY":"304.2348","PERIOD":"95.592","ARG_OF_PERICENTER":"55.8833","TLE_LINE2":"2 48105  53.0560 188.5271 0002031  55.8833 304.2348 15.06395476 52916","RCS_SIZE":"LARGE","EPHEMERIS_TYPE":"0","BSTAR":"-0.00013079000000","OBJECT_NAME":"STARLINK-2440","INCLINATION":"53.0560","CENTER_NAME":"EARTH","MEAN_ELEMENT_THEORY":"SGP4","CLASSIFICATION_TYPE":"U"},{"ECCENTRICITY":"0.00015040","EPOCH":"2022-03-07T18:35:16.934784","GP_ID":"198189228","TLE_LINE1":"1 48106U 21027Q   22066.77450156 -.00000304  00000-0 -15173-5 0  9993","COUNTRY_CODE":"US","TIME_SYSTEM":"UTC","APOAPSIS":"548.291","OBJECT_ID":"2021-027Q","MEAN_MOTION_DOT":"-0.00000304","LAUNCH_DATE":"2021-04-07","SEMIMAJOR_AXIS":"6925.384","REF_FRAME":"TEME","MEAN_MOTION":"15.06388325","ELEMENT_SET_NO":"999","SITE":"AFETR","REV_AT_EPOCH":"5220","PERIAPSIS":"546.208","DECAY_DATE":null,"NORAD_CAT_ID":"48106","OBJECT_TYPE":"PAYLOAD","RA_OF_ASC_NODE":"238.8951","MEAN_MOTION_DDOT":"0.0000000000000","FILE":"3349821","PERIOD":"95.593","MEAN_ANOMALY":"278.9532","ARG_OF_PERICENTER":"81.1627","EPHEMERIS_TYPE":"0","RCS_SIZE":"LARGE","BSTAR":"-0.00000151730000","TLE_LINE2":"2 48106  53.0539 238.8951 0001504  81.1627 278.9532 15.06388325 52203","CLASSIFICATION_TYPE":"U","MEAN_ELEMENT_THEORY":"SGP4","CENTER_NAME":"EARTH","OBJECT_NAME":"STARLINK-2442","INCLINATION":"53.0539"},{"TLE_LINE2":"2 48107  53.0543 238.5255 0001392  79.1320 280.9825 15.06391564 52213","BSTAR":"-0.00001170900000","EPHEMERIS_TYPE":"0","RCS_SIZE":"LARGE","MEAN_ELEMENT_THEORY":"SGP4","CENTER_NAME":"EARTH","INCLINATION":"53.0543","OBJECT_NAME":"STARLINK-2443","CLASSIFICATION_TYPE":"U","FILE":"3349821","MEAN_MOTION_DDOT":"0.0000000000000","OBJECT_TYPE":"PAYLOAD","RA_OF_ASC_NODE":"238.5255","ARG_OF_PERICENTER":"79.1320","PERIOD":"95.593","MEAN_ANOMALY":"280.9825","ELEMENT_SET_NO":"999","MEAN_MOTION":"15.06391564","SITE":"AFETR","LAUNCH_DATE":"2021-04-07","REF_FRAME":"TEME","SEMIMAJOR_AXIS":"6925.374","MEAN_MOTION_DOT":"-0.00000456","OBJECT_ID":"2021-027R","NORAD_CAT_ID":"48107","DECAY_DATE":null,"REV_AT_EPOCH":"5221","PERIAPSIS":"546.275","TLE_LINE1":"1 48107U 21027R   22066.85653717 -.00000456  00000-0 -11709-4 0  9999","COUNTRY_CODE":"US","GP_ID":"198187976","ECCENTRICITY":"0.00013920","EPOCH":"2022-03-07T20:33:24.811488","APOAPSIS":"548.203","TIME_SYSTEM":"UTC"},{"PERIOD":"95.593","MEAN_ANOMALY":"282.1651","ARG_OF_PERICENTER":"77.9517","OBJECT_TYPE":"PAYLOAD","RA_OF_ASC_NODE":"248.3583","MEAN_MOTION_DDOT":"0.0000000000000","FILE":"3349821","CLASSIFICATION_TYPE":"U","CENTER_NAME":"EARTH","MEAN_ELEMENT_THEORY":"SGP4","OBJECT_NAME":"STARLINK-2444","INCLINATION":"53.0534","EPHEMERIS_TYPE":"0","RCS_SIZE":"LARGE","BSTAR":"-0.00012581000000","TLE_LINE2":"2 48108  53.0534 248.3583 0001602  77.9517 282.1651 15.06381192 52076","TIME_SYSTEM":"UTC","APOAPSIS":"548.381","ECCENTRICITY":"0.00016020","EPOCH":"2022-03-07T21:30:29.861280","TLE_LINE1":"1 48108U 21027S   22066.89617895 -.00002154  00000-0 -12581-3 0  9996","GP_ID":"198187727","COUNTRY_CODE":"US","PERIAPSIS":"546.162","REV_AT_EPOCH":"5207","DECAY_DATE":null,"NORAD_CAT_ID":"48108","OBJECT_ID":"2021-027S","MEAN_MOTION_DOT":"-0.00002154","LAUNCH_DATE":"2021-04-07","REF_FRAME":"TEME","SEMIMAJOR_AXIS":"6925.406","MEAN_MOTION":"15.06381192","ELEMENT_SET_NO":"999","SITE":"AFETR"},{"TLE_LINE2":"2 48109  53.0540 258.8869 0001495  80.3193 279.7965 15.06424143 51922","BSTAR":"0.00008941200000","EPHEMERIS_TYPE":"0","RCS_SIZE":"LARGE","CENTER_NAME":"EARTH","MEAN_ELEMENT_THEORY":"SGP4","INCLINATION":"53.0540","OBJECT_NAME":"STARLINK-2445","CLASSIFICATION_TYPE":"U","FILE":"3349821","MEAN_MOTION_DDOT":"0.0000000000000","RA_OF_ASC_NODE":"258.8869","OBJECT_TYPE":"PAYLOAD","ARG_OF_PERICENTER":"80.3193","PERIOD":"95.591","MEAN_ANOMALY":"279.7965","MEAN_MOTION":"15.06424143","ELEMENT_SET_NO":"999","SITE":"AFETR","LAUNCH_DATE":"2021-04-07","SEMIMAJOR_AXIS":"6925.275","REF_FRAME":"TEME","MEAN_MOTION_DOT":"0.00001051","OBJECT_ID":"2021-027T","NORAD_CAT_ID":"48109","DECAY_DATE":null,"PERIAPSIS":"546.104","REV_AT_EPOCH":"5192","GP_ID":"198188978","TLE_LINE1":"1 48109U 21027T   22066.77725756  .00001051  00000-0  89412-4 0  9991","COUNTRY_CODE":"US","ECCENTRICITY":"0.00014950","EPOCH":"2022-03-07T18:39:15.053184","APOAPSIS":"548.175","TIME_SYSTEM":"UTC"},{"APOAPSIS":"548.209","TIME_SYSTEM":"UTC","ECCENTRICITY":"0.00014040","EPOCH":"2022-03-07T21:14:32.258112","TLE_LINE1":"1 48110U 21027U   22066.88509558 -.00003123  00000-0 -19092-3 0  9995","COUNTRY_CODE":"US","GP_ID":"198188729","REV_AT_EPOCH":"5208","PERIAPSIS":"546.264","NORAD_CAT_ID":"48110","DECAY_DATE":null,"OBJECT_ID":"2021-027U","MEAN_MOTION_DOT":"-0.00003123","ELEMENT_SET_NO":"999","MEAN_MOTION":"15.06392614","SITE":"AFETR","LAUNCH_DATE":"2021-04-07","REF_FRAME":"TEME","SEMIMAJOR_AXIS":"6925.371","ARG_OF_PERICENTER":"84.0975","PERIOD":"95.593","MEAN_ANOMALY":"276.0174","MEAN_MOTION_DDOT":"0.0000000000000","RA_OF_ASC_NODE":"248.4046","OBJECT_TYPE":"PAYLOAD","FILE":"3349821","CLASSIFICATION_TYPE":"U","MEAN_ELEMENT_THEORY":"SGP4","CENTER_NAME":"EARTH","OBJECT_NAME":"STARLINK-2447","INCLINATION":"53.0540","BSTAR":"-0.00019092000000","EPHEMERIS_TYPE":"0","RCS_SIZE":"LARGE","TLE_LINE2":"2 48110  53.0540 248.4046 0001404  84.0975 276.0174 15.06392614 52082"},{"TLE_LINE1":"1 48111U 21027V   22066.88048301 -.00000505  00000-0 -15036-4 0  9996","COUNTRY_CODE":"US","GP_ID":"198187477","ECCENTRICITY":"0.00013720","EPOCH":"2022-03-07T21:07:53.732064","TIME_SYSTEM":"UTC","APOAPSIS":"548.202","LAUNCH_DATE":"2021-04-07","REF_FRAME":"TEME","SEMIMAJOR_AXIS":"6925.387","MEAN_MOTION":"15.06387374","ELEMENT_SET_NO":"999","SITE":"AFETR","OBJECT_ID":"2021-027V","MEAN_MOTION_DOT":"-0.00000505","DECAY_DATE":null,"NORAD_CAT_ID":"48111","REV_AT_EPOCH":"5208","PERIAPSIS":"546.302","FILE":"3349821","OBJECT_TYPE":"PAYLOAD","RA_OF_ASC_NODE":"248.4293","MEAN_MOTION_DDOT":"0.0000000000000","PERIOD":"95.593","MEAN_ANOMALY":"273.9813","ARG_OF_PERICENTER":"86.1333","TLE_LINE2":"2 48111  53.0544 248.4293 0001372  86.1333 273.9813 15.06387374 52089","EPHEMERIS_TYPE":"0","RCS_SIZE":"LARGE","BSTAR":"-0.00001503600000","MEAN_ELEMENT_THEORY":"SGP4","CENTER_NAME":"EARTH","OBJECT_NAME":"STARLINK-2448","INCLINATION":"53.0544","CLASSIFICATION_TYPE":"U"},{"ARG_OF_PERICENTER":"86.1762","PERIOD":"95.592","MEAN_ANOMALY":"273.9386","MEAN_MOTION_DDOT":"0.0000000000000","RA_OF_ASC_NODE":"263.5380","OBJECT_TYPE":"PAYLOAD","FILE":"3349821","CLASSIFICATION_TYPE":"U","MEAN_ELEMENT_THEORY":"SGP4","CENTER_NAME":"EARTH","INCLINATION":"53.0537","OBJECT_NAME":"STARLINK-2449","BSTAR":"-0.00008263500000","EPHEMERIS_TYPE":"0","RCS_SIZE":"LARGE","TLE_LINE2":"2 48112  53.0537 263.5380 0001393  86.1762 273.9386 15.06395301 51865","APOAPSIS":"548.193","TIME_SYSTEM":"UTC","ECCENTRICITY":"0.00013930","EPOCH":"2022-03-07T20:31:24.077856","TLE_LINE1":"1 48112U 21027W   22066.85513979 -.00001512  00000-0 -82635-4 0  9990","COUNTRY_CODE":"US","GP_ID":"198188227","REV_AT_EPOCH":"5186","PERIAPSIS":"546.263","NORAD_CAT_ID":"48112","DECAY_DATE":null,"OBJECT_ID":"2021-027W","MEAN_MOTION_DOT":"-0.00001512","MEAN_MOTION":"15.06395301","ELEMENT_SET_NO":"999","SITE":"AFETR","LAUNCH_DATE":"2021-04-07","SEMIMAJOR_AXIS":"6925.363","REF_FRAME":"TEME"},{"PERIOD":"95.593","MEAN_ANOMALY":"280.2649","ARG_OF_PERICENTER":"79.8544","OBJECT_TYPE":"PAYLOAD","RA_OF_ASC_NODE":"258.7621","MEAN_MOTION_DDOT":"0.0000000000000","FILE":"3349821","CLASSIFICATION_TYPE":"U","CENTER_NAME":"EARTH","MEAN_ELEMENT_THEORY":"SGP4","OBJECT_NAME":"STARLINK-2450","INCLINATION":"53.0521","EPHEMERIS_TYPE":"0","RCS_SIZE":"LARGE","BSTAR":"-0.00000769110000","TLE_LINE2":"2 48113  53.0521 258.7621 0001812  79.8544 280.2649 15.06378640 51912","TIME_SYSTEM":"UTC","APOAPSIS":"548.534","ECCENTRICITY":"0.00018120","EPOCH":"2022-03-07T19:21:48.167136","GP_ID":"198188479","TLE_LINE1":"1 48113U 21027X   22066.80680749 -.00000396  00000-0 -76911-5 0  9996","COUNTRY_CODE":"US","PERIAPSIS":"546.024","REV_AT_EPOCH":"5191","DECAY_DATE":null,"NORAD_CAT_ID":"48113","MEAN_MOTION_DOT":"-0.00000396","OBJECT_ID":"2021-027X","LAUNCH_DATE":"2021-04-07","REF_FRAME":"TEME","SEMIMAJOR_AXIS":"6925.414","MEAN_MOTION":"15.06378640","ELEMENT_SET_NO":"999","SITE":"AFETR"}];
